OBJECT_NAME,OBJECT_ID,OBJECT_TYPE,ACTIVE,COUNTRY,LAUNCH,EPOCH,MEAN_MOTION,ECCENTRICITY,INCLINATION,RA_OF_ASC_NODE,ARG_OF_PERICENTER,MEAN_ANOMALY,EPHEMERIS_TYPE,CLASSIFICATION_TYPE,NORAD_CAT_ID,ELEMENT_SET_NO,REV_AT_EPOCH,BSTAR,MEAN_MOTION_DOT,MEAN_MOTION_DDOT,GOES,NOAA,WEATHER,COMMUNICATION,ACTIVE_GEO,GEO_PROTECTED_ZONE,GEO_PROTECTED_ZONE_PLUS,MOVERS,AMATEUR_RADIO,EUTELSAT,EXPERIMENTAL_COMM,GLOBALSTAR,HULIANWANG_DIGUI,INTELSAT,IRIDIUM_NEXT,KUIPER,ONEWEB,ORBCOMM,OTHER_COMM,QIANFAN,SATNOGS,SES,STARLINK,TELESAT,BRIGHTEST,ARGOS,DISASTER_MONITORING,EARTH_RESOURCES,PLANET,SARSAT,SPIRE,TDRSS,MISCELLANEOUS,CUBESTATS,MILITARY,OTHER,RADAR_CALIBRATION,NAVIGATION,AUGMENTATION_SYSTEM,BEIDOU,GALILEO,GLONASS_OPERATIONAL,GNSS,GPS_OPERATIONAL,NNSS,RUSSIAN_LEO_NAVIGATION,SCIENTIFIC,EDUCATION,ENGINEERING,GEODETIC,SPACE_EARTH
FREGAT R/B,2019-030B,,,CIS,2019-05-27,2026-03-02T06:50:08.741760,2.09028637,0.0070183,64.3044,199.5447,135.2138,225.3117,0,U,44300.0,999,5165,00000+0,-1e-07,00000-0,,,,,,,,,,,,,,,,,,,,,,,,,,,,,,,,,,,,,,,,,,,,,,,,,,,
COSMOS 1275 DEB,1981-053PV,,,CIS,1981-06-04,2026-03-02T06:49:38.253792,13.78303511,0.0029842,82.9437,258.2129,32.822,90.3078,0,U,42109.0,999,61737,10369-3,1.2e-06,00000-0,,,,,,,,,,,,,,,,,,,,,,,,,,,,,,,,,,,,,,,,,,,,,,,,,,,
DELTA 1 DEB,1976-077FC,,,US,1976-07-29,2026-03-02T06:47:34.602432,12.35723913,0.0482345,103.8985,181.3859,194.6831,194.5373,0,U,18540.0,999,60208,-16608-1,-3.175e-05,00000-0,,,,,,,,,,,,,,,,,,,,,,,,,,,,,,,,,,,,,,,,,,,,,,,,,,,
ATLAS 5 CENTAUR DEB,2018-079EH,,,US,2018-10-17,2026-03-02T06:44:48.482016,1.82665385,0.4820033,13.7504,30.1337,319.6232,12.9592,0,U,47249.0,999,3505,00000-0,-2.12e-06,00000-0,,,,,,,,,,,,,,,,,,,,,,,,,,,,,,,,,,,,,,,,,,,,,,,,,,,
NOAA 16 DEB,2000-055MG,,,US,2000-09-21,2026-03-02T06:42:17.008127,14.3367319,0.0025265,98.8534,184.7293,230.1589,129.7371,0,U,41508.0,999,51132,20298-2,5.608e-05,00000-0,,,,,,,,,,,,,,,,,,,,,,,,,,,,,,,,,,,,,,,,,,,,,,,,,,,
IRIDIUM 47 DEB,1997-082Q,,,US,1997-12-20,2026-03-02T06:42:15.748416,14.38639812,0.0132515,86.279,47.6458,245.3114,113.424,0,U,40255.0,999,58901,63072-2,0.00021466,00000-0,,,,,,,,,,,,,,,,,,,,,,,,,,,,,,,,,,,,,,,,,,,,,,,,,,,
OPS 4682 DEB,1965-027DV,,,US,1965-04-03,2026-03-02T06:41:31.730208,12.95824375,0.003446,90.249,7.2398,60.7808,299.6751,0,U,38416.0,999,62087,43676-3,1.32e-06,00000-0,,,,,,,,,,,,,,,,,,,,,,,,,,,,,,,,,,,,,,,,,,,,,,,,,,,
DMSP 5D-2 F12 DEB,1994-057G,,,US,1994-08-29,2026-03-02T06:41:11.903135,14.42219307,0.0006692,98.9491,183.3778,104.1874,256.0058,0,U,43344.0,999,48549,27803-2,9.128e-05,00000-0,,,,,,,,,,,,,,,,,,,,,,,,,,,,,,,,,,,,,,,,,,,,,,,,,,,
SL-16 DEB,1992-093EM,,,CIS,1992-12-25,2026-03-02T06:40:42.586752,14.08197832,0.0075993,71.3195,127.8799,58.1638,10.8685,0,U,22444.0,999,69733,20841-3,3.21e-06,00000-0,,,,,,,,,,,,,,,,,,,,,,,,,,,,,,,,,,,,,,,,,,,,,,,,,,,
COSMOS 886 DEB,1976-126BK,,,CIS,1976-12-27,2026-03-02T06:39:57.779712,11.92291246,0.0884629,65.7595,2.5141,299.0532,222.6678,0,U,13507.0,999,94804,-31135-3,-1.2e-06,00000-0,,,,,,,,,,,,,,,,,,,,,,,,,,,,,,,,,,,,,,,,,,,,,,,,,,,
COSMOS 2499 DEB,2014-028AV,,,CIS,2014-05-23,2026-03-02T06:39:52.915392,13.2263745,0.0242153,82.2966,263.1284,121.6573,240.842,0,U,55733.0,999,9078,61032-2,2.994e-05,00000-0,,,,,,,,,,,,,,,,,,,,,,,,,,,,,,,,,,,,,,,,,,,,,,,,,,,
CZ-4 DEB,2004-035J,,,PRC,2004-09-08,2026-03-02T06:38:13.325567,15.09521068,0.0011086,97.5425,76.5887,15.574,344.5828,0,U,29042.0,999,69541,22225-3,3.505e-05,00000-0,,,,,,,,,,,,,,,,,,,,,,,,,,,,,,,,,,,,,,,,,,,,,,,,,,,
ATLAS 2AS CENTAUR R/B,2004-003B,,,US,2004-02-05,2026-03-02T06:37:51.297024,3.70444936,0.6212914,12.7335,329.4026,172.0518,206.466,0,U,28155.0,999,24398,16785-2,4.77e-05,00000-0,,,,,,,,,,,,,,,,,,,,,,,,,,,,,,,,,,,,,,,,,,,,,,,,,,,
THORAD DELTA 1 DEB,1974-089FP,,,US,1974-11-15,2026-03-02T06:36:58.199040,12.42932478,0.0180894,102.7998,86.4438,68.8208,293.2078,0,U,42598.0,999,55628,34194-2,4.54e-06,00000-0,,,,,,,,,,,,,,,,,,,,,,,,,,,,,,,,,,,,,,,,,,,,,,,,,,,
THORAD AGENA D DEB,1970-025RH,,,US,1970-04-08,2026-03-02T06:36:41.441760,13.8678987,0.0015997,99.9488,73.1351,53.8846,306.3787,0,U,42503.0,999,61954,10241-2,1.146e-05,00000-0,,,,,,,,,,,,,,,,,,,,,,,,,,,,,,,,,,,,,,,,,,,,,,,,,,,
METEOR 2-5 DEB,1979-095BW,,,CIS,1979-10-31,2026-03-02T06:36:30.664224,14.40309329,0.0021231,81.1839,238.9765,339.546,198.561,0,U,38276.0,999,73590,16534-2,5.266e-05,00000-0,,,,,,,,,,,,,,,,,,,,,,,,,,,,,,,,,,,,,,,,,,,,,,,,,,,
SL-16 DEB,1992-093JH,,,CIS,1992-12-25,2026-03-02T06:35:39.309792,14.13617116,0.0111508,71.1332,10.1482,108.9521,39.8764,0,U,23302.0,999,63910,10742-2,2.106e-05,00000-0,,,,,,,,,,,,,,,,,,,,,,,,,,,,,,,,,,,,,,,,,,,,,,,,,,,
DELTA 1 DEB,1975-004HN,,,US,1975-01-22,2026-03-02T06:34:27.851808,14.57686411,0.0061465,98.7449,348.0098,134.4727,23.7169,0,U,19105.0,999,16751,17809-3,7.8e-06,00000-0,,,,,,,,,,,,,,,,,,,,,,,,,,,,,,,,,,,,,,,,,,,,,,,,,,,
THORAD DELTA 1 DEB,1974-089DW,,,US,1974-11-15,2026-03-02T06:34:12.097632,12.53774594,0.0143613,101.8031,174.4121,297.1693,94.428,0,U,9697.0,999,34588,10627-3,-2.8e-07,00000-0,,,,,,,,,,,,,,,,,,,,,,,,,,,,,,,,,,,,,,,,,,,,,,,,,,,
NIMBUS 2 DEB,1966-040BB,,,US,1966-05-15,2026-03-02T06:33:34.208640,13.46160091,0.0051686,100.4667,345.5251,90.4588,63.3702,0,U,38183.0,999,69463,34194-2,2.017e-05,00000-0,,,,,,,,,,,,,,,,,,,,,,,,,,,,,,,,,,,,,,,,,,,,,,,,,,,
THORAD AGENA D DEB,1970-025SS,,,US,1970-04-08,2026-03-02T06:32:52.802304,14.12150334,0.0061376,99.4983,1.8794,277.305,82.1147,0,U,42536.0,999,62541,26879-2,4.975e-05,00000-0,,,,,,,,,,,,,,,,,,,,,,,,,,,,,,,,,,,,,,,,,,,,,,,,,,,
SL-12 R/B(AUX MOTOR),1985-118L,,,CIS,1985-12-24,2026-03-02T06:32:36.251520,4.41698178,0.5685861,64.9344,5.61,15.0365,356.4866,0,U,16446.0,999,63315,17202-2,2.005e-05,00000-0,,,,,,,,,,,,,,,,,,,,,,,,,,,,,,,,,,,,,,,,,,,,,,,,,,,
OPS 4682 DEB,1965-027FL,,,US,1965-04-03,2026-03-02T06:31:43.215744,12.97854471,0.0027294,90.241,1.9871,329.6623,30.2917,0,U,38455.0,999,57064,16353-2,4.85e-06,00000-0,,,,,,,,,,,,,,,,,,,,,,,,,,,,,,,,,,,,,,,,,,,,,,,,,,,
DELTA 1 DEB,1976-077EJ,,,US,1976-07-29,2026-03-02T06:30:10.989791,11.75903197,0.0420115,101.8019,349.7097,225.9886,294.6555,0,U,13536.0,999,4548,-78641-3,-9.7e-07,00000-0,,,,,,,,,,,,,,,,,,,,,,,,,,,,,,,,,,,,,,,,,,,,,,,,,,,
COSMOS 1275 DEB,1981-053RF,,,CIS,1981-06-04,2026-03-02T06:29:20.056128,13.80941279,0.0097074,83.0099,268.2171,319.2641,40.1286,0,U,42143.0,999,61613,13027-2,1.438e-05,00000-0,,,,,,,,,,,,,,,,,,,,,,,,,,,,,,,,,,,,,,,,,,,,,,,,,,,
SL-12 DEB,1983-127J,,,CIS,1983-12-29,2026-03-02T06:28:59.269151,11.92108677,0.1028123,54.0477,93.6251,18.7033,344.8873,0,U,21752.0,999,28132,28466+0,0.00096194,00000-0,,,,,,,,,,,,,,,,,,,,,,,,,,,,,,,,,,,,,,,,,,,,,,,,,,,
COSMOS 1375 DEB,1982-055AU,,,CIS,1982-06-06,2026-03-02T06:28:00.504192,13.77374762,0.0041139,65.8347,30.5079,343.6904,134.8662,0,U,17802.0,999,2334,38958-3,3.09e-06,00000-0,,,,,,,,,,,,,,,,,,,,,,,,,,,,,,,,,,,,,,,,,,,,,,,,,,,
SL-16 DEB,1993-016CJ,,,CIS,1993-03-26,2026-03-02T06:27:28.845504,14.2695098,0.0010085,71.0048,13.728,196.5655,163.5146,0,U,39908.0,999,61017,43147-3,1.001e-05,00000-0,,,,,,,,,,,,,,,,,,,,,,,,,,,,,,,,,,,,,,,,,,,,,,,,,,,
BREEZE-M DEB,2008-011AZ,,,CIS,2008-03-14,2026-03-02T06:26:44.126592,3.31369285,0.6444869,48.4716,145.3677,89.8047,338.4528,0,U,38602.0,999,17873,75113-2,7.037e-05,00000-0,,,,,,,,,,,,,,,,,,,,,,,,,,,,,,,,,,,,,,,,,,,,,,,,,,,
WESTFORD NEEDLES,1963-014BX,,,US,1963-05-09,2026-03-02T06:26:11.868288,8.65446745,0.0372038,87.3365,158.3242,267.9015,87.9204,0,U,3257.0,999,5068,66359+0,1.522e-05,00000-0,,,,,,,,,,,,,,,,,,,,,,,,,,,,,,,,,,,,,,,,,,,,,,,,,,,
COSMOS 1275 DEB,1981-053LX,,,CIS,1981-06-04,2026-03-02T06:25:17.814720,14.25501072,0.0050382,82.9654,350.6346,92.641,268.0543,0,U,18637.0,999,8197,22025-2,5.291e-05,00000-0,,,,,,,,,,,,,,,,,,,,,,,,,,,,,,,,,,,,,,,,,,,,,,,,,,,
OPS 4682 DEB,1965-027EZ,,,US,1965-04-03,2026-03-02T06:24:57.466656,12.96295496,0.0027015,90.2492,7.537,101.6966,258.7187,0,U,38444.0,999,62057,13683-3,4.7e-07,00000-0,,,,,,,,,,,,,,,,,,,,,,,,,,,,,,,,,,,,,,,,,,,,,,,,,,,
SCOUT G-1 DEB,1988-033E,,,US,1988-04-26,2026-03-02T06:24:23.738688,13.40860759,0.01594,90.5571,351.3299,219.4357,295.1728,0,U,19078.0,999,84942,18879-3,1.19e-06,00000-0,,,,,,,,,,,,,,,,,,,,,,,,,,,,,,,,,,,,,,,,,,,,,,,,,,,
COSMOS 2499 DEB,2014-028AZ,,,CIS,2014-05-23,2026-03-02T06:24:12.286367,13.23829816,0.0191628,82.2943,259.2435,97.913,264.3792,0,U,56566.0,999,8370,19863-1,9.342e-05,00000-0,,,,,,,,,,,,,,,,,,,,,,,,,,,,,,,,,,,,,,,,,,,,,,,,,,,
SL-14 DEB,1991-056BB,,,CIS,1991-08-15,2026-03-02T06:23:41.991072,13.44232771,0.0097136,82.58,154.3289,89.5542,271.6725,0,U,45313.0,999,29422,19793-2,1.197e-05,00000-0,,,,,,,,,,,,,,,,,,,,,,,,,,,,,,,,,,,,,,,,,,,,,,,,,,,
SL-12 R/B(2),2010-007D,,,CIS,2010-03-01,2026-03-02T06:23:38.700960,2.13314994,0.0018793,65.4783,317.6993,187.9285,358.3759,0,U,36403.0,999,12463,00000-0,-4.6e-07,00000-0,,,,,,,,,,,,,,,,,,,,,,,,,,,,,,,,,,,,,,,,,,,,,,,,,,,
COSMOS 1971 (GLONASS),1988-085B,,,CIS,1988-09-16,2026-03-02T06:22:24.898080,2.13101604,0.0023321,65.2964,318.0393,13.8268,159.9961,0,U,19502.0,999,27707,00000-0,-4.7e-07,00000-0,,,,,,,,,,,,,,,,,,,,,,,,,,,,,,,,,,,,,,,,,,,,,,,,,,,
FREGAT RB/CLUSTER 2,2000-015A,,,CIS,2000-03-20,2026-03-02T06:21:06.135840,4.61257203,0.5433698,65.0995,171.2015,269.7815,31.1285,0,U,26106.0,999,43327,15158-3,8e-07,00000-0,,,,,,,,,,,,,,,,,,,,,,,,,,,,,,,,,,,,,,,,,,,,,,,,,,,
INTELSAT 4-F1,1975-042A,,,ITSO,1975-05-22,2026-03-02T06:19:27.829920,0.99258261,0.0011994,8.4768,306.8726,283.2722,76.5734,0,U,7815.0,999,12089,00000-0,7.4e-07,00000-0,,,,,,,,,,,,,,,,,,,,,,,,,,,,,,,,,,,,,,,,,,,,,,,,,,,
THORAD DELTA 1 DEB,1974-089W,,,US,1974-11-15,2026-03-02T06:19:13.750176,12.682667,0.0054175,101.9262,47.1174,211.004,276.3525,0,U,8156.0,999,36974,72922-3,9.4e-07,00000-0,,,,,,,,,,,,,,,,,,,,,,,,,,,,,,,,,,,,,,,,,,,,,,,,,,,
OPS 4682 DEB,1965-027FH,,,US,1965-04-03,2026-03-02T06:18:45.890496,12.93967828,0.0018317,90.2496,1.1393,82.3369,277.9829,0,U,38452.0,999,60927,96980-3,2.75e-06,00000-0,,,,,,,,,,,,,,,,,,,,,,,,,,,,,,,,,,,,,,,,,,,,,,,,,,,
